[{"OBJECT_NAME":"STARLINK-30141","OBJECT_ID":"2023-119U","EPOCH":"2026-03-09T22:00:01.999584","MEAN_MOTION":15.2107926,"ECCENTRICITY":0.00013582,"INCLINATION":43.0008,"RA_OF_ASC_NODE":79.7468,"ARG_OF_PERICENTER":280.3935,"MEAN_ANOMALY":216.6505,"EPHEMERIS_TYPE":0,"CLASSIFICATION_TYPE":"U","NORAD_CAT_ID":57620,"ELEMENT_SET_NO":999,"REV_AT_EPOCH":573,"BSTAR":0.049108878,"MEAN_MOTION_DOT":0.0121443,"MEAN_MOTION_DDOT":0},{"OBJECT_NAME":"M-SEL\/CORTEZ","OBJECT_ID":"2025-052X","EPOCH":"2026-03-09T22:43:08.037984","MEAN_MOTION":15.2443435,"ECCENTRICITY":0.00063111,"INCLINATION":97.4031,"RA_OF_ASC_NODE":323.6247,"ARG_OF_PERICENTER":125.7323,"MEAN_ANOMALY":234.4503,"EPHEMERIS_TYPE":0,"CLASSIFICATION_TYPE":"U","NORAD_CAT_ID":63231,"ELEMENT_SET_NO":999,"REV_AT_EPOCH":5479,"BSTAR":0.00042924652,"MEAN_MOTION_DOT":0.00010472,"MEAN_MOTION_DDOT":0}]
